[
    {
        "Altitude(m)": 604983.0530096794,
        "Argument of Periapsis(deg)": 0.0,
        "Eccentricity": 0.0,
        "Inclination(deg)": 60.0,
        "Latitude(deg)": -0.09268171841464032,
        "Longitude(deg)": -149.91608377409665,
        "Mean Anomaly(deg)": 180.0,
        "RAAN(deg)": 130.0,
        "Satellite Name": "Test1 583",
        "Satellite Number": 583,
        "Semi-Major Axis(m)": 6980739.136638005,
        "Time(s)": 0
    },
    {
        "Altitude(m)": 605055.3327100949,
        "Argument of Periapsis(deg)": 0.00010418945913296404,
        "Eccentricity": 0.0,
        "Inclination(deg)": 60.0,
        "Latitude(deg)": -0.6330921049506149,
        "Longitude(deg)": -149.64795988203352,
        "Mean Anomaly(deg)": 180.62010614546182,
        "RAAN(deg)": 129.99957995086024,
        "Satellite Name": "Test1 583",
        "Satellite Number": 583,
        "Semi-Major Axis(m)": 6980739.136638005,
        "Time(s)": 10
    }
]